<?xml version="1.0" encoding="UTF-8"?>
<ndm xmlns:xsi="http://www.w3.org/2001/XMLSchema-instance" xsi:noNamespaceSchemaLocation="https://sanaregistry.org/r/ndmxml_unqualified/ndmxml-2.0.0-master-2.0.xsd">
<omm id="CCSDS_OMM_VERS" version="2.0">
<header><CREATION_DATE/><ORIGINATOR/></header><body><segment><metadata><OBJECT_NAME>ONEWEB-0249</OBJECT_NAME><OBJECT_ID>2021-060A</OBJECT_ID><CENTER_NAME>EARTH</CENTER_NAME><REF_FRAME>TEME</REF_FRAME><TIME_SYSTEM>UTC</TIME_SYSTEM><MEAN_ELEMENT_THEORY>SGP4</MEAN_ELEMENT_THEORY></metadata><data><meanElements><EPOCH>2025-12-04T01:03:13.368672</EPOCH><MEAN_MOTION>13.16594432</MEAN_MOTION><ECCENTRICITY>.0001887</ECCENTRICITY><INCLINATION>87.9036</INCLINATION><RA_OF_ASC_NODE>267.6366</RA_OF_ASC_NODE><ARG_OF_PERICENTER>73.7988</ARG_OF_PERICENTER><MEAN_ANOMALY>286.3350</MEAN_ANOMALY></meanElements><tleParameters><EPHEMERIS_TYPE>0</EPHEMERIS_TYPE><CLASSIFICATION_TYPE>U</CLASSIFICATION_TYPE><NORAD_CAT_ID>48967</NORAD_CAT_ID><ELEMENT_SET_NO>999</ELEMENT_SET_NO><REV_AT_EPOCH>21393</REV_AT_EPOCH><BSTAR>.15434E-3</BSTAR><MEAN_MOTION_DOT>.72E-6</MEAN_MOTION_DOT><MEAN_MOTION_DDOT>0</MEAN_MOTION_DDOT></tleParameters></data></segment></body></omm>
<omm id="CCSDS_OMM_VERS" version="2.0">
<header><CREATION_DATE/><ORIGINATOR/></header><body><segment><metadata><OBJECT_NAME>ONEWEB-0250</OBJECT_NAME><OBJECT_ID>2021-060B</OBJECT_ID><CENTER_NAME>EARTH</CENTER_NAME><REF_FRAME>TEME</REF_FRAME><TIME_SYSTEM>UTC</TIME_SYSTEM><MEAN_ELEMENT_THEORY>SGP4</MEAN_ELEMENT_THEORY></metadata><data><meanElements><EPOCH>2025-12-04T01:42:57.271680</EPOCH><MEAN_MOTION>13.25819590</MEAN_MOTION><ECCENTRICITY>.0001742</ECCENTRICITY><INCLINATION>87.9035</INCLINATION><RA_OF_ASC_NODE>266.0254</RA_OF_ASC_NODE><ARG_OF_PERICENTER>41.1298</ARG_OF_PERICENTER><MEAN_ANOMALY>318.9970</MEAN_ANOMALY></meanElements><tleParameters><EPHEMERIS_TYPE>0</EPHEMERIS_TYPE><CLASSIFICATION_TYPE>U</CLASSIFICATION_TYPE><NORAD_CAT_ID>48968</NORAD_CAT_ID><ELEMENT_SET_NO>999</ELEMENT_SET_NO><REV_AT_EPOCH>21436</REV_AT_EPOCH><BSTAR>-.20341E-3</BSTAR><MEAN_MOTION_DOT>-.76E-6</MEAN_MOTION_DOT><MEAN_MOTION_DDOT>0</MEAN_MOTION_DDOT></tleParameters></data></segment></body></omm>
<omm id="CCSDS_OMM_VERS" version="2.0">
<header><CREATION_DATE/><ORIGINATOR/></header><body><segment><metadata><OBJECT_NAME>ONEWEB-0252</OBJECT_NAME><OBJECT_ID>2021-060D</OBJECT_ID><CENTER_NAME>EARTH</CENTER_NAME><REF_FRAME>TEME</REF_FRAME><TIME_SYSTEM>UTC</TIME_SYSTEM><MEAN_ELEMENT_THEORY>SGP4</MEAN_ELEMENT_THEORY></metadata><data><meanElements><EPOCH>2025-12-04T01:48:47.816352</EPOCH><MEAN_MOTION>13.16591762</MEAN_MOTION><ECCENTRICITY>.0001908</ECCENTRICITY><INCLINATION>87.9037</INCLINATION><RA_OF_ASC_NODE>267.6239</RA_OF_ASC_NODE><ARG_OF_PERICENTER>81.4125</ARG_OF_PERICENTER><MEAN_ANOMALY>278.7222</MEAN_ANOMALY></meanElements><tleParameters><EPHEMERIS_TYPE>0</EPHEMERIS_TYPE><CLASSIFICATION_TYPE>U</CLASSIFICATION_TYPE><NORAD_CAT_ID>48970</NORAD_CAT_ID><ELEMENT_SET_NO>999</ELEMENT_SET_NO><REV_AT_EPOCH>21398</REV_AT_EPOCH><BSTAR>-.21574E-3</BSTAR><MEAN_MOTION_DOT>-.7E-6</MEAN_MOTION_DOT><MEAN_MOTION_DDOT>0</MEAN_MOTION_DDOT></tleParameters></data></segment></body></omm>
<omm id="CCSDS_OMM_VERS" version="2.0">
<header><CREATION_DATE/><ORIGINATOR/></header><body><segment><metadata><OBJECT_NAME>ONEWEB-0253</OBJECT_NAME><OBJECT_ID>2021-060E</OBJECT_ID><CENTER_NAME>EARTH</CENTER_NAME><REF_FRAME>TEME</REF_FRAME><TIME_SYSTEM>UTC</TIME_SYSTEM><MEAN_ELEMENT_THEORY>SGP4</MEAN_ELEMENT_THEORY></metadata><data><meanElements><EPOCH>2025-12-03T20:04:33.129120</EPOCH><MEAN_MOTION>13.16596098</MEAN_MOTION><ECCENTRICITY>.0001963</ECCENTRICITY><INCLINATION>87.9040</INCLINATION><RA_OF_ASC_NODE>267.6758</RA_OF_ASC_NODE><ARG_OF_PERICENTER>73.9760</ARG_OF_PERICENTER><MEAN_ANOMALY>286.1587</MEAN_ANOMALY></meanElements><tleParameters><EPHEMERIS_TYPE>0</EPHEMERIS_TYPE><CLASSIFICATION_TYPE>U</CLASSIFICATION_TYPE><NORAD_CAT_ID>48971</NORAD_CAT_ID><ELEMENT_SET_NO>999</ELEMENT_SET_NO><REV_AT_EPOCH>21388</REV_AT_EPOCH><BSTAR>-.10157E-3</BSTAR><MEAN_MOTION_DOT>-.26E-6</MEAN_MOTION_DOT><MEAN_MOTION_DDOT>0</MEAN_MOTION_DDOT></tleParameters></data></segment></body></omm>
<omm id="CCSDS_OMM_VERS" version="2.0">
<header><CREATION_DATE/><ORIGINATOR/></header><body><segment><metadata><OBJECT_NAME>ONEWEB-0254</OBJECT_NAME><OBJECT_ID>2021-060F</OBJECT_ID><CENTER_NAME>EARTH</CENTER_NAME><REF_FRAME>TEME</REF_FRAME><TIME_SYSTEM>UTC</TIME_SYSTEM><MEAN_ELEMENT_THEORY>SGP4</MEAN_ELEMENT_THEORY></metadata><data><meanElements><EPOCH>2025-12-04T01:46:32.198592</EPOCH><MEAN_MOTION>13.16595262</MEAN_MOTION><ECCENTRICITY>.0002047</ECCENTRICITY><INCLINATION>87.9046</INCLINATION><RA_OF_ASC_NODE>267.6196</RA_OF_ASC_NODE><ARG_OF_PERICENTER>67.9521</ARG_OF_PERICENTER><MEAN_ANOMALY>292.1827</MEAN_ANOMALY></meanElements><tleParameters><EPHEMERIS_TYPE>0</EPHEMERIS_TYPE><CLASSIFICATION_TYPE>U</CLASSIFICATION_TYPE><NORAD_CAT_ID>48972</NORAD_CAT_ID><ELEMENT_SET_NO>999</ELEMENT_SET_NO><REV_AT_EPOCH>21391</REV_AT_EPOCH><BSTAR>-.40676E-3</BSTAR><MEAN_MOTION_DOT>-.143E-5</MEAN_MOTION_DOT><MEAN_MOTION_DDOT>0</MEAN_MOTION_DDOT></tleParameters></data></segment></body></omm>
<omm id="CCSDS_OMM_VERS" version="2.0">
<header><CREATION_DATE/><ORIGINATOR/></header><body><segment><metadata><OBJECT_NAME>ONEWEB-0255</OBJECT_NAME><OBJECT_ID>2021-060G</OBJECT_ID><CENTER_NAME>EARTH</CENTER_NAME><REF_FRAME>TEME</REF_FRAME><TIME_SYSTEM>UTC</TIME_SYSTEM><MEAN_ELEMENT_THEORY>SGP4</MEAN_ELEMENT_THEORY></metadata><data><meanElements><EPOCH>2025-12-04T02:41:14.457696</EPOCH><MEAN_MOTION>13.16601488</MEAN_MOTION><ECCENTRICITY>.000136</ECCENTRICITY><INCLINATION>87.9032</INCLINATION><RA_OF_ASC_NODE>267.6290</RA_OF_ASC_NODE><ARG_OF_PERICENTER>56.2862</ARG_OF_PERICENTER><MEAN_ANOMALY>303.8399</MEAN_ANOMALY></meanElements><tleParameters><EPHEMERIS_TYPE>0</EPHEMERIS_TYPE><CLASSIFICATION_TYPE>U</CLASSIFICATION_TYPE><NORAD_CAT_ID>48973</NORAD_CAT_ID><ELEMENT_SET_NO>999</ELEMENT_SET_NO><REV_AT_EPOCH>21399</REV_AT_EPOCH><BSTAR>.22122E-2</BSTAR><MEAN_MOTION_DOT>.859E-5</MEAN_MOTION_DOT><MEAN_MOTION_DDOT>0</MEAN_MOTION_DDOT></tleParameters></data></segment></body></omm>
<omm id="CCSDS_OMM_VERS" version="2.0">
<header><CREATION_DATE/><ORIGINATOR/></header><body><segment><metadata><OBJECT_NAME>ONEWEB-0256</OBJECT_NAME><OBJECT_ID>2021-060H</OBJECT_ID><CENTER_NAME>EARTH</CENTER_NAME><REF_FRAME>TEME</REF_FRAME><TIME_SYSTEM>UTC</TIME_SYSTEM><MEAN_ELEMENT_THEORY>SGP4</MEAN_ELEMENT_THEORY></metadata><data><meanElements><EPOCH>2025-12-03T20:01:08.412096</EPOCH><MEAN_MOTION>13.16594111</MEAN_MOTION><ECCENTRICITY>.0001751</ECCENTRICITY><INCLINATION>87.9028</INCLINATION><RA_OF_ASC_NODE>267.6929</RA_OF_ASC_NODE><ARG_OF_PERICENTER>79.1938</ARG_OF_PERICENTER><MEAN_ANOMALY>280.9390</MEAN_ANOMALY></meanElements><tleParameters><EPHEMERIS_TYPE>0</EPHEMERIS_TYPE><CLASSIFICATION_TYPE>U</CLASSIFICATION_TYPE><NORAD_CAT_ID>48974</NORAD_CAT_ID><ELEMENT_SET_NO>999</ELEMENT_SET_NO><REV_AT_EPOCH>21392</REV_AT_EPOCH><BSTAR>-.78047E-4</BSTAR><MEAN_MOTION_DOT>-.17E-6</MEAN_MOTION_DOT><MEAN_MOTION_DDOT>0</MEAN_MOTION_DDOT></tleParameters></data></segment></body></omm>
<omm id="CCSDS_OMM_VERS" version="2.0">
<header><CREATION_DATE/><ORIGINATOR/></header><body><segment><metadata><OBJECT_NAME>ONEWEB-0257</OBJECT_NAME><OBJECT_ID>2021-060J</OBJECT_ID><CENTER_NAME>EARTH</CENTER_NAME><REF_FRAME>TEME</REF_FRAME><TIME_SYSTEM>UTC</TIME_SYSTEM><MEAN_ELEMENT_THEORY>SGP4</MEAN_ELEMENT_THEORY></metadata><data><meanElements><EPOCH>2025-12-04T02:16:10.625088</EPOCH><MEAN_MOTION>13.16594247</MEAN_MOTION><ECCENTRICITY>.0001925</ECCENTRICITY><INCLINATION>87.9038</INCLINATION><RA_OF_ASC_NODE>267.6185</RA_OF_ASC_NODE><ARG_OF_PERICENTER>75.0341</ARG_OF_PERICENTER><MEAN_ANOMALY>285.1003</MEAN_ANOMALY></meanElements><tleParameters><EPHEMERIS_TYPE>0</EPHEMERIS_TYPE><CLASSIFICATION_TYPE>U</CLASSIFICATION_TYPE><NORAD_CAT_ID>48975</NORAD_CAT_ID><ELEMENT_SET_NO>999</ELEMENT_SET_NO><REV_AT_EPOCH>21391</REV_AT_EPOCH><BSTAR>.18293E-3</BSTAR><MEAN_MOTION_DOT>.83E-6</MEAN_MOTION_DOT><MEAN_MOTION_DDOT>0</MEAN_MOTION_DDOT></tleParameters></data></segment></body></omm>

</ndm>
