ONEWEB-0249             
1 48967U 21060A   25338.04390473  .00000072  00000+0  15434-3 0  9992
2 48967  87.9036 267.6366 0001887  73.7988 286.3350 13.16594432213934
ONEWEB-0250             
1 48968U 21060B   25338.07149620 -.00000076  00000+0 -20341-3 0  9991
2 48968  87.9035 266.0254 0001742  41.1298 318.9970 13.25819590214369
ONEWEB-0252             
1 48970U 21060D   25338.07555343 -.00000070  00000+0 -21574-3 0  9990
2 48970  87.9037 267.6239 0001908  81.4125 278.7222 13.16591762213982
ONEWEB-0253             
1 48971U 21060E   25337.83649455 -.00000026  00000+0 -10157-3 0  9998
2 48971  87.9040 267.6758 0001963  73.9760 286.1587 13.16596098213888
ONEWEB-0254             
1 48972U 21060F   25338.07398378 -.00000143  00000+0 -40676-3 0  9990
2 48972  87.9046 267.6196 0002047  67.9521 292.1827 13.16595262213913
ONEWEB-0255             
1 48973U 21060G   25338.11197289  .00000859  00000+0  22122-2 0  9991
2 48973  87.9032 267.6290 0001360  56.2862 303.8399 13.16601488213990
ONEWEB-0256             
1 48974U 21060H   25337.83412514 -.00000017  00000+0 -78047-4 0  9998
2 48974  87.9028 267.6929 0001751  79.1938 280.9390 13.16594111213920
ONEWEB-0257             
1 48975U 21060J   25338.09456742  .00000083  00000+0  18293-3 0  9996
2 48975  87.9038 267.6185 0001925  75.0341 285.1003 13.16594247213919
